{
  "type": "FeatureCollection",
  "features": [
    {
      "type": "Feature",
      "properties": {
        "norad_id": 44333,
        "name": "AT&T T-16",
        "group": "intelsat",
        "lat": -0.01709797486796586,
        "lon": -119.91257711751514,
        "alt_km": 35786.378626381644,
        "timestamp": "2025-12-04T17:48:39.841095+00:00",
        "meta_object_name": "AT&T T-16",
        "meta_object_id": "2019-034A",
        "meta_epoch": "2025-12-04T06:23:50.795232",
        "meta_mean_motion": 1.00268621,
        "meta_eccentricity": 3.516e-05,
        "meta_inclination": 0.0347,
        "meta_ra_of_asc_node": 76.5475,
        "meta_arg_of_pericenter": 97.5301,
        "meta_mean_anomaly": 254.3586,
        "meta_ephemeris_type": 0,
        "meta_classification_type": "U",
        "meta_norad_cat_id": 44333,
        "meta_element_set_no": 999,
        "meta_rev_at_epoch": 2367,
        "meta_bstar": 0,
        "meta_mean_motion_dot": -9.9e-07,
        "meta_mean_motion_ddot": 0,
        "tle_line1": "1 44333U 19034A   25338.26656013 -.00000099  00000+0  00000+0 0  9991",
        "tle_line2": "2 44333   0.0347  76.5475 0000351  97.5301 254.3586  1.00268621 23678"
      },
      "geometry": {
        "type": "Point",
        "coordinates": [
          -119.91257711751514,
          -0.01709797486796586
        ]
      }
    },
    {
      "type": "Feature",
      "properties": {
        "norad_id": 44476,
        "name": "INTELSAT 39 (IS-39)",
        "group": "intelsat",
        "lat": 0.042600438541846954,
        "lon": 42.8924152165805,
        "alt_km": 35787.88206596092,
        "timestamp": "2025-12-04T17:48:39.841106+00:00",
        "meta_object_name": "INTELSAT 39 (IS-39)",
        "meta_object_id": "2019-049B",
        "meta_epoch": "2025-12-04T03:44:50.063136",
        "meta_mean_motion": 1.00270116,
        "meta_eccentricity": 7.888e-05,
        "meta_inclination": 0.0174,
        "meta_ra_of_asc_node": 324.8718,
        "meta_arg_of_pericenter": 192.6163,
        "meta_mean_anomaly": 33.9011,
        "meta_ephemeris_type": 0,
        "meta_classification_type": "U",
        "meta_norad_cat_id": 44476,
        "meta_element_set_no": 999,
        "meta_rev_at_epoch": 2317,
        "meta_bstar": 0,
        "meta_mean_motion_dot": 5e-07,
        "meta_mean_motion_ddot": 0,
        "tle_line1": "1 44476U 19049B   25338.15613499  .00000050  00000+0  00000+0 0  9990",
        "tle_line2": "2 44476   0.0174 324.8718 0000788 192.6163  33.9011  1.00270116 23171"
      },
      "geometry": {
        "type": "Point",
        "coordinates": [
          42.8924152165805,
          0.042600438541846954
        ]
      }
    },
    {
      "type": "Feature",
      "properties": {
        "norad_id": 46114,
        "name": "GALAXY 30 (G-30)",
        "group": "intelsat",
        "lat": -0.03999469535363629,
        "lon": -144.06300090395817,
        "alt_km": 35779.00627188342,
        "timestamp": "2025-12-04T17:48:39.841118+00:00",
        "meta_object_name": "GALAXY 30 (G-30)",
        "meta_object_id": "2020-056C",
        "meta_epoch": "2025-12-04T06:16:58.952352",
        "meta_mean_motion": 1.0026698,
        "meta_eccentricity": 0.00024727,
        "meta_inclination": 0.0157,
        "meta_ra_of_asc_node": 322.8496,
        "meta_arg_of_pericenter": 289.8453,
        "meta_mean_anomaly": 149.8938,
        "meta_ephemeris_type": 0,
        "meta_classification_type": "U",
        "meta_norad_cat_id": 46114,
        "meta_element_set_no": 999,
        "meta_rev_at_epoch": 1933,
        "meta_bstar": 0,
        "meta_mean_motion_dot": 5.3e-07,
        "meta_mean_motion_ddot": 0,
        "tle_line1": "1 46114U 20056C   25338.26179343  .00000053  00000+0  00000+0 0  9991",
        "tle_line2": "2 46114   0.0157 322.8496 0002472 289.8453 149.8938  1.00266980 19339"
      },
      "geometry": {
        "type": "Point",
        "coordinates": [
          -144.06300090395817,
          -0.03999469535363629
        ]
      }
    },
    {
      "type": "Feature",
      "properties": {
        "norad_id": 54026,
        "name": "GALAXY 33 (G-33)",
        "group": "intelsat",
        "lat": -0.02433003975522466,
        "lon": -152.0395200599952,
        "alt_km": 35779.38536182178,
        "timestamp": "2025-12-04T17:48:39.841129+00:00",
        "meta_object_name": "GALAXY 33 (G-33)",
        "meta_object_id": "2022-128A",
        "meta_epoch": "2025-12-04T04:32:00.542688",
        "meta_mean_motion": 1.00272957,
        "meta_eccentricity": 0.00020139,
        "meta_inclination": 0.0134,
        "meta_ra_of_asc_node": 359.762,
        "meta_arg_of_pericenter": 250.3751,
        "meta_mean_anomaly": 118.1476,
        "meta_ephemeris_type": 0,
        "meta_classification_type": "U",
        "meta_norad_cat_id": 54026,
        "meta_element_set_no": 999,
        "meta_rev_at_epoch": 1178,
        "meta_bstar": 0,
        "meta_mean_motion_dot": 9.5e-07,
        "meta_mean_motion_ddot": 0,
        "tle_line1": "1 54026U 22128A   25338.18889517  .00000095  00000+0  00000+0 0  9992",
        "tle_line2": "2 54026   0.0134 359.7620 0002013 250.3751 118.1476  1.00272957 11786"
      },
      "geometry": {
        "type": "Point",
        "coordinates": [
          -152.0395200599952,
          -0.02433003975522466
        ]
      }
    },
    {
      "type": "Feature",
      "properties": {
        "norad_id": 54027,
        "name": "GALAXY 34 (G-34)",
        "group": "intelsat",
        "lat": -0.04542639331076262,
        "lon": -147.98414608972453,
        "alt_km": 35780.95052622253,
        "timestamp": "2025-12-04T17:48:39.841141+00:00",
        "meta_object_name": "GALAXY 34 (G-34)",
        "meta_object_id": "2022-128B",
        "meta_epoch": "2025-12-03T23:24:52.608960",
        "meta_mean_motion": 1.00272182,
        "meta_eccentricity": 0.00014521,
        "meta_inclination": 0.023,
        "meta_ra_of_asc_node": 323.101,
        "meta_arg_of_pericenter": 285.0932,
        "meta_mean_anomaly": 47.148,
        "meta_ephemeris_type": 0,
        "meta_classification_type": "U",
        "meta_norad_cat_id": 54027,
        "meta_element_set_no": 999,
        "meta_rev_at_epoch": 1195,
        "meta_bstar": 0,
        "meta_mean_motion_dot": 0,
        "meta_mean_motion_ddot": 0,
        "tle_line1": "1 54027U 22128B   25337.97560890  .00000000  00000+0  00000+0 0  9995",
        "tle_line2": "2 54027   0.0230 323.1010 0001452 285.0932  47.1480  1.00272182 11959"
      },
      "geometry": {
        "type": "Point",
        "coordinates": [
          -147.98414608972453,
          -0.04542639331076262
        ]
      }
    },
    {
      "type": "Feature",
      "properties": {
        "norad_id": 54243,
        "name": "GALAXY 31 (G-31)",
        "group": "intelsat",
        "lat": -0.019455052400458896,
        "lon": -140.0499320663452,
        "alt_km": 35780.058560208294,
        "timestamp": "2025-12-04T17:48:39.841153+00:00",
        "meta_object_name": "GALAXY 31 (G-31)",
        "meta_object_id": "2022-153A",
        "meta_epoch": "2025-12-03T23:27:14.882112",
        "meta_mean_motion": 1.0027208,
        "meta_eccentricity": 0.00020897,
        "meta_inclination": 0.0112,
        "meta_ra_of_asc_node": 21.6118,
        "meta_arg_of_pericenter": 246.6524,
        "meta_mean_anomaly": 35.6149,
        "meta_ephemeris_type": 0,
        "meta_classification_type": "U",
        "meta_norad_cat_id": 54243,
        "meta_element_set_no": 999,
        "meta_rev_at_epoch": 517,
        "meta_bstar": 0,
        "meta_mean_motion_dot": 3e-07,
        "meta_mean_motion_ddot": 0,
        "tle_line1": "1 54243U 22153A   25337.97725558  .00000030  00000+0  00000+0 0  9990",
        "tle_line2": "2 54243   0.0112  21.6118 0002089 246.6524  35.6149  1.00272080  5172"
      },
      "geometry": {
        "type": "Point",
        "coordinates": [
          -140.0499320663452,
          -0.019455052400458896
        ]
      }
    },
    {
      "type": "Feature",
      "properties": {
        "norad_id": 54244,
        "name": "GALAXY 32 (G-32)",
        "group": "intelsat",
        "lat": -0.034942198607306685,
        "lon": -110.0674988563113,
        "alt_km": 35780.28202995078,
        "timestamp": "2025-12-04T17:48:39.841164+00:00",
        "meta_object_name": "GALAXY 32 (G-32)",
        "meta_object_id": "2022-153B",
        "meta_epoch": "2025-12-03T13:19:23.206080",
        "meta_mean_motion": 1.00270437,
        "meta_eccentricity": 0.00025394,
        "meta_inclination": 0.0105,
        "meta_ra_of_asc_node": 329.1215,
        "meta_arg_of_pericenter": 335.3454,
        "meta_mean_anomaly": 237.0261,
        "meta_ephemeris_type": 0,
        "meta_classification_type": "U",
        "meta_norad_cat_id": 54244,
        "meta_element_set_no": 999,
        "meta_rev_at_epoch": 1118,
        "meta_bstar": 0,
        "meta_mean_motion_dot": -1.56e-06,
        "meta_mean_motion_ddot": 0,
        "tle_line1": "1 54244U 22153B   25337.55512970 -.00000156  00000+0  00000+0 0  9997",
        "tle_line2": "2 54244   0.0105 329.1215 0002539 335.3454 237.0261  1.00270437 11182"
      },
      "geometry": {
        "type": "Point",
        "coordinates": [
          -110.0674988563113,
          -0.034942198607306685
        ]
      }
    }
  ]
}